[{"OBJECT_NAME":"NUSAT-48 (HENRIETTA LEAVITT)","OBJECT_ID":"2024-149AG","EPOCH":"2026-03-09T19:19:17.269536","MEAN_MOTION":15.29812597,"ECCENTRICITY":0.00027538,"INCLINATION":97.3923,"RA_OF_ASC_NODE":150.8264,"ARG_OF_PERICENTER":263.3026,"MEAN_ANOMALY":96.7901,"EPHEMERIS_TYPE":0,"CLASSIFICATION_TYPE":"U","NORAD_CAT_ID":60498,"ELEMENT_SET_NO":999,"REV_AT_EPOCH":8694,"BSTAR":0.00045211745,"MEAN_MOTION_DOT":0.00012988,"MEAN_MOTION_DDOT":0},{"OBJECT_NAME":"STARLINK-33927","OBJECT_ID":"2025-101H","EPOCH":"2026-03-09T04:32:42.873504","MEAN_MOTION":15.27579595,"ECCENTRICITY":0.00016104,"INCLINATION":43.0025,"RA_OF_ASC_NODE":1.2321,"ARG_OF_PERICENTER":249.4003,"MEAN_ANOMALY":110.6676,"EPHEMERIS_TYPE":0,"CLASSIFICATION_TYPE":"U","NORAD_CAT_ID":64001,"ELEMENT_SET_NO":999,"REV_AT_EPOCH":4697,"BSTAR":0.0013864387,"MEAN_MOTION_DOT":0.00038087,"MEAN_MOTION_DDOT":0}]
