NUSAT-48 (HENRIETTA LE*)
1 60498U 24149AG  26068.80506098  .00012988  00000+0  45212-3 0  9999
2 60498  97.3923 150.8264 0002754 263.3026  96.7901 15.29812597 86946
STARLINK-33927          
1 64001U 25101H   26068.18938511  .00038087  00000+0  13864-2 0  9997
2 64001  43.0025   1.2321 0001610 249.4003 110.6676 15.27579595 46974
